SENTINEL-6              
1 46984U 20086A   24286.50170946 -.00000029  00000+0  13716-3 0  9993
2 46984  66.0427 327.6102 0007887 269.4444  90.5667 12.80929129181851
